start=new Date('2022-01-30T00:00:00.000Z').valueOf();
sats=[{"EPOCH":"2022-01-29T19:19:13.219968","APOAPSIS":"548.270","ECCENTRICITY":"0.00015490","CLASSIFICATION_TYPE":"U","MEAN_MOTION_DOT":"0.00000929","COUNTRY_CODE":"US","RA_OF_ASC_NODE":"149.8538","CENTER_NAME":"EARTH","TIME_SYSTEM":"UTC","ARG_OF_PERICENTER":"87.7487","RCS_SIZE":"LARGE","REV_AT_EPOCH":"7085","OBJECT_ID":"2020-073BH","ELEMENT_SET_NO":"999","FILE":"3287083","BSTAR":"0.00008121400000","MEAN_MOTION":"15.06405326","OBJECT_TYPE":"PAYLOAD","TLE_LINE1":"1 46725U 20073BH  22029.80501412  .00000929  00000-0  81214-4 0  9992","LAUNCH_DATE":"2020-10-18","GP_ID":"194913778","SITE":"AFETR","SEMIMAJOR_AXIS":"6925.332","REF_FRAME":"TEME","OBJECT_NAME":"STARLINK-1828","MEAN_MOTION_DDOT":"0.0000000000000","DECAY_DATE":null,"MEAN_ANOMALY":"272.3679","PERIOD":"95.592","INCLINATION":"53.0542","MEAN_ELEMENT_THEORY":"SGP4","PERIAPSIS":"546.125","NORAD_CAT_ID":"46725","EPHEMERIS_TYPE":"0","TLE_LINE2":"2 46725  53.0542 149.8538 0001549  87.7487 272.3679 15.06405326 70851"},{"MEAN_MOTION_DOT":"0.00000399","COUNTRY_CODE":"US","EPOCH":"2022-01-29T16:44:37.616640","ECCENTRICITY":"0.00039750","APOAPSIS":"549.960","CLASSIFICATION_TYPE":"U","TIME_SYSTEM":"UTC","ARG_OF_PERICENTER":"209.9793","RCS_SIZE":"LARGE","REV_AT_EPOCH":"7104","RA_OF_ASC_NODE":"135.3546","CENTER_NAME":"EARTH","LAUNCH_DATE":"2020-10-18","GP_ID":"194913025","SITE":"AFETR","REF_FRAME":"TEME","SEMIMAJOR_AXIS":"6925.343","OBJECT_NAME":"STARLINK-1829","OBJECT_ID":"2020-073BJ","ELEMENT_SET_NO":"999","FILE":"3287083","BSTAR":"0.00004573500000","MEAN_MOTION":"15.06401940","OBJECT_TYPE":"PAYLOAD","TLE_LINE1":"1 46726U 20073BJ  22029.69765760  .00000399  00000-0  45735-4 0  9997","NORAD_CAT_ID":"46726","EPHEMERIS_TYPE":"0","TLE_LINE2":"2 46726  53.0562 135.3546 0003975 209.9793 150.0969 15.06401940 71040","MEAN_MOTION_DDOT":"0.0000000000000","DECAY_DATE":null,"PERIOD":"95.592","MEAN_ANOMALY":"150.0969","INCLINATION":"53.0562","MEAN_ELEMENT_THEORY":"SGP4","PERIAPSIS":"544.455"},{"SEMIMAJOR_AXIS":"6925.359","SITE":"AFETR","REF_FRAME":"TEME","OBJECT_NAME":"STARLINK-1830","LAUNCH_DATE":"2020-10-18","GP_ID":"194913276","BSTAR":"0.00015381000000","FILE":"3287083","MEAN_MOTION":"15.06396504","OBJECT_TYPE":"PAYLOAD","TLE_LINE1":"1 46727U 20073BK  22029.91928093  .00002010  00000-0  15381-3 0  9998","OBJECT_ID":"2020-073BK","ELEMENT_SET_NO":"999","NORAD_CAT_ID":"46727","TLE_LINE2":"2 46727  53.0560 109.3413 0001547  64.8876 295.2273 15.06396504 71438","EPHEMERIS_TYPE":"0","DECAY_DATE":null,"PERIOD":"95.592","MEAN_ANOMALY":"295.2273","INCLINATION":"53.0560","PERIAPSIS":"546.153","MEAN_ELEMENT_THEORY":"SGP4","MEAN_MOTION_DDOT":"0.0000000000000","COUNTRY_CODE":"US","MEAN_MOTION_DOT":"0.00002010","APOAPSIS":"548.296","ECCENTRICITY":"0.00015470","CLASSIFICATION_TYPE":"U","EPOCH":"2022-01-29T22:03:45.872352","TIME_SYSTEM":"UTC","ARG_OF_PERICENTER":"64.8876","RCS_SIZE":"LARGE","REV_AT_EPOCH":"7143","RA_OF_ASC_NODE":"109.3413","CENTER_NAME":"EARTH"},{"MEAN_ELEMENT_THEORY":"SGP4","PERIAPSIS":"328.976","INCLINATION":"53.0475","MEAN_ANOMALY":"347.8310","PERIOD":"91.179","DECAY_DATE":null,"MEAN_MOTION_DDOT":"0.0000000000000","TLE_LINE2":"2 46728  53.0475  79.1948 0005101  12.2834 347.8310 15.79309085 71829","EPHEMERIS_TYPE":"0","NORAD_CAT_ID":"46728","TLE_LINE1":"1 46728U 20073BL  22029.63072022  .00116006  00000-0  62607-3 0  9994","OBJECT_TYPE":"PAYLOAD","MEAN_MOTION":"15.79309085","FILE":"3287083","BSTAR":"0.00062607000000","ELEMENT_SET_NO":"999","OBJECT_ID":"2020-073BL","SITE":"AFETR","OBJECT_NAME":"STARLINK-1831","SEMIMAJOR_AXIS":"6710.534","REF_FRAME":"TEME","GP_ID":"194913528","LAUNCH_DATE":"2020-10-18","CENTER_NAME":"EARTH","RA_OF_ASC_NODE":"79.1948","REV_AT_EPOCH":"7182","RCS_SIZE":"LARGE","ARG_OF_PERICENTER":"12.2834","TIME_SYSTEM":"UTC","CLASSIFICATION_TYPE":"U","ECCENTRICITY":"0.00051010","APOAPSIS":"335.822","EPOCH":"2022-01-29T15:08:14.227008","COUNTRY_CODE":"US","MEAN_MOTION_DOT":"0.00116006"},{"COUNTRY_CODE":"US","MEAN_MOTION_DOT":"0.00001268","CLASSIFICATION_TYPE":"U","APOAPSIS":"548.663","ECCENTRICITY":"0.00020540","EPOCH":"2022-01-29T19:31:10.663968","REV_AT_EPOCH":"7053","RCS_SIZE":"LARGE","ARG_OF_PERICENTER":"74.2413","TIME_SYSTEM":"UTC","CENTER_NAME":"EARTH","RA_OF_ASC_NODE":"219.8332","SITE":"AFETR","OBJECT_NAME":"STARLINK-1848","SEMIMAJOR_AXIS":"6925.376","REF_FRAME":"TEME","GP_ID":"194913779","LAUNCH_DATE":"2020-10-24","TLE_LINE1":"1 46740U 20074B   22029.81331787  .00001268  00000-0  10404-3 0  9996","MEAN_MOTION":"15.06391154","OBJECT_TYPE":"PAYLOAD","BSTAR":"0.00010404000000","FILE":"3287083","ELEMENT_SET_NO":"999","OBJECT_ID":"2020-074B","EPHEMERIS_TYPE":"0","TLE_LINE2":"2 46740  53.0532 219.8332 0002054  74.2413 285.8803 15.06391154 70535","NORAD_CAT_ID":"46740","PERIAPSIS":"545.818","MEAN_ELEMENT_THEORY":"SGP4","INCLINATION":"53.0532","MEAN_ANOMALY":"285.8803","PERIOD":"95.593","DECAY_DATE":null,"MEAN_MOTION_DDOT":"0.0000000000000"},{"RCS_SIZE":"LARGE","REV_AT_EPOCH":"7061","TIME_SYSTEM":"UTC","ARG_OF_PERICENTER":"75.9253","CENTER_NAME":"EARTH","RA_OF_ASC_NODE":"214.7489","MEAN_MOTION_DOT":"-0.00000680","COUNTRY_CODE":"US","EPOCH":"2022-01-29T19:55:43.659552","CLASSIFICATION_TYPE":"U","APOAPSIS":"548.699","ECCENTRICITY":"0.00021530","NORAD_CAT_ID":"46741","TLE_LINE2":"2 46741  53.0535 214.7489 0002153  75.9253 284.1975 15.06401776 70619","EPHEMERIS_TYPE":"0","MEAN_MOTION_DDOT":"0.0000000000000","INCLINATION":"53.0535","MEAN_ELEMENT_THEORY":"SGP4","PERIAPSIS":"545.717","DECAY_DATE":null,"PERIOD":"95.592","MEAN_ANOMALY":"284.1975","LAUNCH_DATE":"2020-10-24","GP_ID":"194913026","SITE":"AFETR","OBJECT_NAME":"STARLINK-1865","SEMIMAJOR_AXIS":"6925.343","REF_FRAME":"TEME","ELEMENT_SET_NO":"999","OBJECT_ID":"2020-074C","MEAN_MOTION":"15.06401776","OBJECT_TYPE":"PAYLOAD","TLE_LINE1":"1 46741U 20074C   22029.83036643 -.00000680  00000-0 -26756-4 0  9999","BSTAR":"-0.00002675600000","FILE":"3287083"},{"REF_FRAME":"TEME","SITE":"AFETR","SEMIMAJOR_AXIS":"6925.356","OBJECT_NAME":"STARLINK-1872","LAUNCH_DATE":"2020-10-24","GP_ID":"194913277","MEAN_MOTION":"15.06397609","OBJECT_TYPE":"PAYLOAD","TLE_LINE1":"1 46742U 20074D   22029.86722182 -.00000638  00000-0 -23915-4 0  9990","FILE":"3287083","BSTAR":"-0.00002391500000","ELEMENT_SET_NO":"999","OBJECT_ID":"2020-074D","NORAD_CAT_ID":"46742","TLE_LINE2":"2 46742  53.0541 214.5758 0001755  73.0564 287.0617 15.06397609 70619","EPHEMERIS_TYPE":"0","INCLINATION":"53.0541","PERIAPSIS":"546.005","MEAN_ELEMENT_THEORY":"SGP4","DECAY_DATE":null,"PERIOD":"95.592","MEAN_ANOMALY":"287.0617","MEAN_MOTION_DDOT":"0.0000000000000","COUNTRY_CODE":"US","MEAN_MOTION_DOT":"-0.00000638","CLASSIFICATION_TYPE":"U","ECCENTRICITY":"0.00017550","APOAPSIS":"548.436","EPOCH":"2022-01-29T20:48:47.965248","RCS_SIZE":"LARGE","REV_AT_EPOCH":"7061","TIME_SYSTEM":"UTC","ARG_OF_PERICENTER":"73.0564","CENTER_NAME":"EARTH","RA_OF_ASC_NODE":"214.5758"},{"RA_OF_ASC_NODE":"214.4760","CENTER_NAME":"EARTH","ARG_OF_PERICENTER":"153.0935","TIME_SYSTEM":"UTC","REV_AT_EPOCH":"7062","RCS_SIZE":"LARGE","APOAPSIS":"548.078","ECCENTRICITY":"0.00012620","CLASSIFICATION_TYPE":"U","EPOCH":"2022-01-29T21:20:39.202368","COUNTRY_CODE":"US","MEAN_MOTION_DOT":"-0.00000060","MEAN_ANOMALY":"207.0119","PERIOD":"95.592","DECAY_DATE":null,"PERIAPSIS":"546.330","MEAN_ELEMENT_THEORY":"SGP4","INCLINATION":"53.0533","MEAN_MOTION_DDOT":"0.0000000000000","EPHEMERIS_TYPE":"0","TLE_LINE2":"2 46743  53.0533 214.4760 0001262 153.0935 207.0119 15.06403169 70626","NORAD_CAT_ID":"46743","BSTAR":"0.00001486200000","FILE":"3287083","TLE_LINE1":"1 46743U 20074E   22029.88934262 -.00000060  00000-0  14862-4 0  9996","OBJECT_TYPE":"PAYLOAD","MEAN_MOTION":"15.06403169","OBJECT_ID":"2020-074E","ELEMENT_SET_NO":"999","SITE":"AFETR","OBJECT_NAME":"STARLINK-1892","SEMIMAJOR_AXIS":"6925.339","REF_FRAME":"TEME","GP_ID":"194913529","LAUNCH_DATE":"2020-10-24"},{"NORAD_CAT_ID":"46744","TLE_LINE2":"2 46744  53.0548 214.3891 0001975  72.2919 287.8286 15.06391566 70620","EPHEMERIS_TYPE":"0","MEAN_MOTION_DDOT":"0.0000000000000","INCLINATION":"53.0548","PERIAPSIS":"545.872","MEAN_ELEMENT_THEORY":"SGP4","DECAY_DATE":null,"PERIOD":"95.593","MEAN_ANOMALY":"287.8286","LAUNCH_DATE":"2020-10-24","GP_ID":"194914279","SEMIMAJOR_AXIS":"6925.374","SITE":"AFETR","OBJECT_NAME":"STARLINK-1894","REF_FRAME":"TEME","ELEMENT_SET_NO":"999","OBJECT_ID":"2020-074F","MEAN_MOTION":"15.06391566","OBJECT_TYPE":"PAYLOAD","TLE_LINE1":"1 46744U 20074F   22029.90778076 -.00000451  00000-0 -11391-4 0  9998","BSTAR":"-0.00001139100000","FILE":"3287083","RCS_SIZE":"LARGE","REV_AT_EPOCH":"7062","TIME_SYSTEM":"UTC","ARG_OF_PERICENTER":"72.2919","CENTER_NAME":"EARTH","RA_OF_ASC_NODE":"214.3891","MEAN_MOTION_DOT":"-0.00000451","COUNTRY_CODE":"US","EPOCH":"2022-01-29T21:47:12.257664","CLASSIFICATION_TYPE":"U","ECCENTRICITY":"0.00019750","APOAPSIS":"548.607"},{"EPOCH":"2022-01-29T22:14:10.000896","APOAPSIS":"437.949","ECCENTRICITY":"0.00024830","CLASSIFICATION_TYPE":"U","MEAN_MOTION_DOT":"0.00024968","COUNTRY_CODE":"US","RA_OF_ASC_NODE":"195.2357","CENTER_NAME":"EARTH","TIME_SYSTEM":"UTC","ARG_OF_PERICENTER":"259.0300","RCS_SIZE":"LARGE","REV_AT_EPOCH":"7089","OBJECT_ID":"2020-074G","ELEMENT_SET_NO":"999","BSTAR":"0.00055876000000","FILE":"3287083","MEAN_MOTION":"15.43341854","OBJECT_TYPE":"PAYLOAD","TLE_LINE1":"1 46745U 20074G   22029.92650464  .00024968  00000-0  55876-3 0  9993","LAUNCH_DATE":"2020-10-24","GP_ID":"194912527","SITE":"AFETR","SEMIMAJOR_AXIS":"6814.392","OBJECT_NAME":"STARLINK-1898","REF_FRAME":"TEME","MEAN_MOTION_DDOT":"0.0000000000000","DECAY_DATE":null,"PERIOD":"93.304","MEAN_ANOMALY":"101.0426","INCLINATION":"53.0537","MEAN_ELEMENT_THEORY":"SGP4","PERIAPSIS":"434.565","NORAD_CAT_ID":"46745","EPHEMERIS_TYPE":"0","TLE_LINE2":"2 46745  53.0537 195.2357 0002483 259.0300 101.0426 15.43341854 70895"}];
